{
  "type": "FeatureCollection",
  "features": [
    {
      "type": "Feature",
      "properties": {
        "norad_id": 37781,
        "name": "HAIYANG-2A",
        "group": "resource",
        "lat": -37.821349375425754,
        "lon": 6.2580028997613955,
        "alt_km": 974.6581046007741,
        "timestamp": "2025-12-24T03:53:29.299237+00:00",
        "meta_object_name": "HAIYANG-2A",
        "meta_object_id": "2011-043A",
        "meta_epoch": "2025-12-23T21:06:40.802688",
        "meta_mean_motion": 13.7883586,
        "meta_eccentricity": 0.0001604,
        "meta_inclination": 99.3374,
        "meta_ra_of_asc_node": 358.6421,
        "meta_arg_of_pericenter": 69.1175,
        "meta_mean_anomaly": 291.0148,
        "meta_ephemeris_type": 0,
        "meta_classification_type": "U",
        "meta_norad_cat_id": 37781,
        "meta_element_set_no": 999,
        "meta_rev_at_epoch": 72252,
        "meta_bstar": 2.0619e-06,
        "meta_mean_motion_dot": -4.2e-07,
        "meta_mean_motion_ddot": 0,
        "tle_line1": "1 37781U 11043A   25357.87963892 -.00000042  00000+0  20619-5 0  9998",
        "tle_line2": "2 37781  99.3374 358.6421 0001604  69.1175 291.0148 13.78835860722524"
      },
      "geometry": {
        "type": "Point",
        "coordinates": [
          6.2580028997613955,
          -37.821349375425754
        ]
      }
    },
    {
      "type": "Feature",
      "properties": {
        "norad_id": 37791,
        "name": "RASAT",
        "group": "resource",
        "lat": 43.73134965109028,
        "lon": -84.95383695103106,
        "alt_km": 667.9610072989599,
        "timestamp": "2025-12-24T03:53:29.299248+00:00",
        "meta_object_name": "RASAT",
        "meta_object_id": "2011-044D",
        "meta_epoch": "2025-12-23T21:02:18.346272",
        "meta_mean_motion": 14.6792376,
        "meta_eccentricity": 0.00214,
        "meta_inclination": 98.0647,
        "meta_ra_of_asc_node": 86.9691,
        "meta_arg_of_pericenter": 31.3566,
        "meta_mean_anomaly": 35.9878,
        "meta_ephemeris_type": 0,
        "meta_classification_type": "U",
        "meta_norad_cat_id": 37791,
        "meta_element_set_no": 999,
        "meta_rev_at_epoch": 76746,
        "meta_bstar": 0.00010436,
        "meta_mean_motion_dot": 5.5e-06,
        "meta_mean_motion_ddot": 0,
        "tle_line1": "1 37791U 11044D   25357.87660123  .00000550  00000+0  10436-3 0  9998",
        "tle_line2": "2 37791  98.0647  86.9691 0021400  31.3566  35.9878 14.67923760767468"
      },
      "geometry": {
        "type": "Point",
        "coordinates": [
          -84.95383695103106,
          43.73134965109028
        ]
      }
    },
    {
      "type": "Feature",
      "properties": {
        "norad_id": 37841,
        "name": "SRMSAT",
        "group": "resource",
        "lat": -19.479493586259327,
        "lon": -38.049708910376815,
        "alt_km": 861.9459968520923,
        "timestamp": "2025-12-24T03:53:29.299259+00:00",
        "meta_object_name": "SRMSAT",
        "meta_object_id": "2011-058D",
        "meta_epoch": "2025-12-23T20:30:47.361312",
        "meta_mean_motion": 14.11515025,
        "meta_eccentricity": 0.0011994,
        "meta_inclination": 19.973,
        "meta_ra_of_asc_node": 40.682,
        "meta_arg_of_pericenter": 75.0703,
        "meta_mean_anomaly": 81.788,
        "meta_ephemeris_type": 0,
        "meta_classification_type": "U",
        "meta_norad_cat_id": 37841,
        "meta_element_set_no": 999,
        "meta_rev_at_epoch": 73301,
        "meta_bstar": 8.172e-05,
        "meta_mean_motion_dot": 4.15e-06,
        "meta_mean_motion_ddot": 0,
        "tle_line1": "1 37841U 11058D   25357.85471483  .00000415  00000+0  81720-4 0  9991",
        "tle_line2": "2 37841  19.9730  40.6820 0011994  75.0703  81.7880 14.11515025733011"
      },
      "geometry": {
        "type": "Point",
        "coordinates": [
          -38.049708910376815,
          -19.479493586259327
        ]
      }
    },
    {
      "type": "Feature",
      "properties": {
        "norad_id": 38012,
        "name": "PLEIADES 1A",
        "group": "resource",
        "lat": -81.16842516159798,
        "lon": -177.0529576193844,
        "alt_km": 705.9017040493254,
        "timestamp": "2025-12-24T03:53:29.299269+00:00",
        "meta_object_name": "PLEIADES 1A",
        "meta_object_id": "2011-076F",
        "meta_epoch": "2025-12-23T20:41:53.564928",
        "meta_mean_motion": 14.58570886,
        "meta_eccentricity": 0.000111,
        "meta_inclination": 98.1812,
        "meta_ra_of_asc_node": 70.4592,
        "meta_arg_of_pericenter": 74.223,
        "meta_mean_anomaly": 59.5986,
        "meta_ephemeris_type": 0,
        "meta_classification_type": "U",
        "meta_norad_cat_id": 38012,
        "meta_element_set_no": 999,
        "meta_rev_at_epoch": 74643,
        "meta_bstar": 9.6852e-05,
        "meta_mean_motion_dot": 4.05e-06,
        "meta_mean_motion_ddot": 0,
        "tle_line1": "1 38012U 11076F   25357.86242552  .00000405  00000+0  96852-4 0  9997",
        "tle_line2": "2 38012  98.1812  70.4592 0001110  74.2230  59.5986 14.58570886746431"
      },
      "geometry": {
        "type": "Point",
        "coordinates": [
          -177.0529576193844,
          -81.16842516159798
        ]
      }
    },
    {
      "type": "Feature",
      "properties": {
        "norad_id": 38038,
        "name": "ZIYUAN 1-02C (ZY 1-02C)",
        "group": "resource",
        "lat": 50.008149082851745,
        "lon": 53.77971754915563,
        "alt_km": 757.5630687241282,
        "timestamp": "2025-12-24T03:53:29.299279+00:00",
        "meta_object_name": "ZIYUAN 1-02C (ZY 1-02C)",
        "meta_object_id": "2011-079A",
        "meta_epoch": "2025-12-23T21:29:20.732640",
        "meta_mean_motion": 14.38023828,
        "meta_eccentricity": 0.0007528,
        "meta_inclination": 98.4319,
        "meta_ra_of_asc_node": 63.7029,
        "meta_arg_of_pericenter": 109.2756,
        "meta_mean_anomaly": 1.4092,
        "meta_ephemeris_type": 0,
        "meta_classification_type": "U",
        "meta_norad_cat_id": 38038,
        "meta_element_set_no": 999,
        "meta_rev_at_epoch": 73401,
        "meta_bstar": 0.00017922,
        "meta_mean_motion_dot": 4.99e-06,
        "meta_mean_motion_ddot": 0,
        "tle_line1": "1 38038U 11079A   25357.89537885  .00000499  00000+0  17922-3 0  9990",
        "tle_line2": "2 38038  98.4319  63.7029 0007528 109.2756   1.4092 14.38023828734017"
      },
      "geometry": {
        "type": "Point",
        "coordinates": [
          53.77971754915563,
          50.008149082851745
        ]
      }
    },
    {
      "type": "Feature",
      "properties": {
        "norad_id": 38338,
        "name": "ARIRANG-3 (KOMPSAT-3)",
        "group": "resource",
        "lat": -64.98149319926841,
        "lon": -28.855690538457278,
        "alt_km": 691.4684330455157,
        "timestamp": "2025-12-24T03:53:29.299290+00:00",
        "meta_object_name": "ARIRANG-3 (KOMPSAT-3)",
        "meta_object_id": "2012-025B",
        "meta_epoch": "2025-12-23T21:37:21.948672",
        "meta_mean_motion": 14.61726437,
        "meta_eccentricity": 0.0004748,
        "meta_inclination": 98.3339,
        "meta_ra_of_asc_node": 312.5753,
        "meta_arg_of_pericenter": 298.8169,
        "meta_mean_anomaly": 61.2555,
        "meta_ephemeris_type": 0,
        "meta_classification_type": "U",
        "meta_norad_cat_id": 38338,
        "meta_element_set_no": 999,
        "meta_rev_at_epoch": 72573,
        "meta_bstar": 0.00011621,
        "meta_mean_motion_dot": 5.31e-06,
        "meta_mean_motion_ddot": 0,
        "tle_line1": "1 38338U 12025B   25357.90094848  .00000531  00000+0  11621-3 0  9991",
        "tle_line2": "2 38338  98.3339 312.5753 0004748 298.8169  61.2555 14.61726437725733"
      },
      "geometry": {
        "type": "Point",
        "coordinates": [
          -28.855690538457278,
          -64.98149319926841
        ]
      }
    },
    {
      "type": "Feature",
      "properties": {
        "norad_id": 38709,
        "name": "EXACTVIEW-1 (ADS-1B)",
        "group": "resource",
        "lat": -39.925720383268576,
        "lon": -80.79881037715,
        "alt_km": 816.4585194347765,
        "timestamp": "2025-12-24T03:53:29.299300+00:00",
        "meta_object_name": "EXACTVIEW-1 (ADS-1B)",
        "meta_object_id": "2012-039C",
        "meta_epoch": "2025-12-23T13:22:37.841088",
        "meta_mean_motion": 14.24912021,
        "meta_eccentricity": 0.0010196,
        "meta_inclination": 98.9637,
        "meta_ra_of_asc_node": 106.1744,
        "meta_arg_of_pericenter": 321.7673,
        "meta_mean_anomaly": 38.2781,
        "meta_ephemeris_type": 0,
        "meta_classification_type": "U",
        "meta_norad_cat_id": 38709,
        "meta_element_set_no": 999,
        "meta_rev_at_epoch": 69769,
        "meta_bstar": 7.5013e-05,
        "meta_mean_motion_dot": 1.29e-06,
        "meta_mean_motion_ddot": 0,
        "tle_line1": "1 38709U 12039C   25357.55738242  .00000129  00000+0  75013-4 0  9991",
        "tle_line2": "2 38709  98.9637 106.1744 0010196 321.7673  38.2781 14.24912021697692"
      },
      "geometry": {
        "type": "Point",
        "coordinates": [
          -80.79881037715,
          -39.925720383268576
        ]
      }
    }
  ]
}